{"type": "FeatureCollection", "features": [ {"type": "Feature", "properties": {"norad_id": 67011, "name": "STARLINK-36167", "group": "last-30-days", "lat": -42.61411038274935, "lon": -98.652201806115, "alt_km": 365.7947083385334, "timestamp": "2025-12-27T14:26:29.245541+00:00", "meta": {"OBJECT_NAME": "STARLINK-36167", "OBJECT_ID": "2025-293J", "EPOCH": "2025-12-27T06:00:02.000160", "MEAN_MOTION": 15.70348341, "ECCENTRICITY": 0.00036262, "INCLINATION": 69.9979, "RA_OF_ASC_NODE": 281.9166, "ARG_OF_PERICENTER": 273.2154, "MEAN_ANOMALY": 213.8694, "EPHEMERIS_TYPE": 0, "CLASSIFICATION_TYPE": "U", "NORAD_CAT_ID": 67011, "ELEMENT_SET_NO": 999, "REV_AT_EPOCH": 244, "BSTAR": -0.014901386, "MEAN_MOTION_DOT": -0.01620668, "MEAN_MOTION_DDOT": 0}, "tle": {"line1": "1 67011U 25293J   25361.25002315 -.01620668  00000+0 -14901-1 0  9997", "line2": "2 67011  69.9979 281.9166 0003626 273.2154 213.8694 15.70348341  2449"}}, "geometry": {"type": "Point", "coordinates": [-98.652201806115, -42.61411038274935]}}, {"type": "Feature", "properties": {"norad_id": 67012, "name": "STARLINK-36175", "group": "last-30-days", "lat": -38.68173870480373, "lon": -96.03296423221138, "alt_km": 365.9153063687927, "timestamp": "2025-12-27T14:26:29.245551+00:00", "meta": {"OBJECT_NAME": "STARLINK-36175", "OBJECT_ID": "2025-293K", "EPOCH": "2025-12-27T06:00:02.000160", "MEAN_MOTION": 15.70317242, "ECCENTRICITY": 0.00034787, "INCLINATION": 69.9982, "RA_OF_ASC_NODE": 281.9115, "ARG_OF_PERICENTER": 273.5791, "MEAN_ANOMALY": 217.9612, "EPHEMERIS_TYPE": 0, "CLASSIFICATION_TYPE": "U", "NORAD_CAT_ID": 67012, "ELEMENT_SET_NO": 999, "REV_AT_EPOCH": 244, "BSTAR": -0.014987463, "MEAN_MOTION_DOT": -0.01626975, "MEAN_MOTION_DDOT": 0}, "tle": {"line1": "1 67012U 25293K   25361.25002315 -.01626975  00000+0 -14987-1 0  9999", "line2": "2 67012  69.9982 281.9115 0003478 273.5791 217.9612 15.70317242  2444"}}, "geometry": {"type": "Point", "coordinates": [-96.03296423221138, -38.68173870480373]}}, {"type": "Feature", "properties": {"norad_id": 67013, "name": "STARLINK-35856", "group": "last-30-days", "lat": -36.610792499255545, "lon": -94.78185565085518, "alt_km": 365.9705195103634, "timestamp": "2025-12-27T14:26:29.245561+00:00", "meta": {"OBJECT_NAME": "STARLINK-35856", "OBJECT_ID": "2025-293L", "EPOCH": "2025-12-27T06:00:02.000160", "MEAN_MOTION": 15.70287672, "ECCENTRICITY": 0.00032849, "INCLINATION": 69.9981, "RA_OF_ASC_NODE": 281.9084, "ARG_OF_PERICENTER": 275.9589, "MEAN_ANOMALY": 217.9168, "EPHEMERIS_TYPE": 0, "CLASSIFICATION_TYPE": "U", "NORAD_CAT_ID": 67013, "ELEMENT_SET_NO": 999, "REV_AT_EPOCH": 244, "BSTAR": -0.014939845, "MEAN_MOTION_DOT": -0.01620438, "MEAN_MOTION_DDOT": 0}, "tle": {"line1": "1 67013U 25293L   25361.25002315 -.01620438  00000+0 -14940-1 0  9997", "line2": "2 67013  69.9981 281.9084 0003284 275.9589 217.9168 15.70287672  2444"}}, "geometry": {"type": "Point", "coordinates": [-94.78185565085518, -36.610792499255545]}}, {"type": "Feature", "properties": {"norad_id": 67014, "name": "STARLINK-36207", "group": "last-30-days", "lat": -34.59459698333306, "lon": -93.63210071426944, "alt_km": 366.0253375590737, "timestamp": "2025-12-27T14:26:29.245573+00:00", "meta": {"OBJECT_NAME": "STARLINK-36207", "OBJECT_ID": "2025-293M", "EPOCH": "2025-12-27T06:00:02.000160", "MEAN_MOTION": 15.70273531, "ECCENTRICITY": 0.00033662, "INCLINATION": 69.9983, "RA_OF_ASC_NODE": 281.9068, "ARG_OF_PERICENTER": 273.16, "MEAN_ANOMALY": 222.9591, "EPHEMERIS_TYPE": 0, "CLASSIFICATION_TYPE": "U", "NORAD_CAT_ID": 67014, "ELEMENT_SET_NO": 999, "REV_AT_EPOCH": 250, "BSTAR": -0.015003204, "MEAN_MOTION_DOT": -0.01625751, "MEAN_MOTION_DDOT": 0}, "tle": {"line1": "1 67014U 25293M   25361.25002315 -.01625751  00000+0 -15003-1 0  9992", "line2": "2 67014  69.9983 281.9068 0003366 273.1600 222.9591 15.70273531  2506"}}, "geometry": {"type": "Point", "coordinates": [-93.63210071426944, -34.59459698333306]}}, {"type": "Feature", "properties": {"norad_id": 67015, "name": "STARLINK-36093", "group": "last-30-days", "lat": -30.56827112745687, "lon": -91.51217117857054, "alt_km": 366.0494610830865, "timestamp": "2025-12-27T14:26:29.245584+00:00", "meta": {"OBJECT_NAME": "STARLINK-36093", "OBJECT_ID": "2025-293N", "EPOCH": "2025-12-27T06:00:02.000160", "MEAN_MOTION": 15.70236813, "ECCENTRICITY": 0.00033591, "INCLINATION": 69.9981, "RA_OF_ASC_NODE": 281.9005, "ARG_OF_PERICENTER": 272.4109, "MEAN_ANOMALY": 228.163, "EPHEMERIS_TYPE": 0, "CLASSIFICATION_TYPE": "U", "NORAD_CAT_ID": 67015, "ELEMENT_SET_NO": 999, "REV_AT_EPOCH": 244, "BSTAR": -0.015003065, "MEAN_MOTION_DOT": -0.01623509, "MEAN_MOTION_DDOT": 0}, "tle": {"line1": "1 67015U 25293N   25361.25002315 -.01623509  00000+0 -15003-1 0  9992", "line2": "2 67015  69.9981 281.9005 0003359 272.4109 228.1630 15.70236813  2441"}}, "geometry": {"type": "Point", "coordinates": [-91.51217117857054, -30.56827112745687]}}, {"type": "Feature", "properties": {"norad_id": 67016, "name": "STARLINK-36120", "group": "last-30-days", "lat": -32.64862939256069, "lon": -92.58137165984252, "alt_km": 366.0428737238308, "timestamp": "2025-12-27T14:26:29.245594+00:00", "meta": {"OBJECT_NAME": "STARLINK-36120", "OBJECT_ID": "2025-293P", "EPOCH": "2025-12-27T06:00:02.000160", "MEAN_MOTION": 15.7026061, "ECCENTRICITY": 0.00033582, "INCLINATION": 69.9984, "RA_OF_ASC_NODE": 281.9035, "ARG_OF_PERICENTER": 272.4509, "MEAN_ANOMALY": 225.8208, "EPHEMERIS_TYPE": 0, "CLASSIFICATION_TYPE": "U", "NORAD_CAT_ID": 67016, "ELEMENT_SET_NO": 999, "REV_AT_EPOCH": 244, "BSTAR": -0.015014254, "MEAN_MOTION_DOT": -0.01626025, "MEAN_MOTION_DDOT": 0}, "tle": {"line1": "1 67016U 25293P   25361.25002315 -.01626025  00000+0 -15014-1 0  9991", "line2": "2 67016  69.9984 281.9035 0003358 272.4509 225.8208 15.70260610  2448"}}, "geometry": {"type": "Point", "coordinates": [-92.58137165984252, -32.64862939256069]}}, {"type": "Feature", "properties": {"norad_id": 67017, "name": "STARLINK-35498", "group": "last-30-days", "lat": -28.552418963332652, "lon": -90.52342016489939, "alt_km": 365.96557302825295, "timestamp": "2025-12-27T14:26:29.245603+00:00", "meta": {"OBJECT_NAME": "STARLINK-35498", "OBJECT_ID": "2025-293Q", "EPOCH": "2025-12-27T06:00:02.000160", "MEAN_MOTION": 15.70222034, "ECCENTRICITY": 0.00034707, "INCLINATION": 69.9976, "RA_OF_ASC_NODE": 281.8974, "ARG_OF_PERICENTER": 273.2001, "MEAN_ANOMALY": 229.5868, "EPHEMERIS_TYPE": 0, "CLASSIFICATION_TYPE": "U", "NORAD_CAT_ID": 67017, "ELEMENT_SET_NO": 999, "REV_AT_EPOCH": 263, "BSTAR": -0.015032146, "MEAN_MOTION_DOT": -0.01625501, "MEAN_MOTION_DDOT": 0}, "tle": {"line1": "1 67017U 25293Q   25361.25002315 -.01625501  00000+0 -15032-1 0  9990", "line2": "2 67017  69.9976 281.8974 0003470 273.2001 229.5868 15.70222034  2634"}}, "geometry": {"type": "Point", "coordinates": [-90.52342016489939, -28.552418963332652]}}, {"type": "Feature", "properties": {"norad_id": 67018, "name": "STARLINK-36106", "group": "last-30-days", "lat": -26.522300862727107, "lon": -89.5679032956485, "alt_km": 365.92565966422535, "timestamp": "2025-12-27T14:26:29.245615+00:00", "meta": {"OBJECT_NAME": "STARLINK-36106", "OBJECT_ID": "2025-293R", "EPOCH": "2025-12-27T06:00:02.000160", "MEAN_MOTION": 15.70207953, "ECCENTRICITY": 0.00035069, "INCLINATION": 69.9977, "RA_OF_ASC_NODE": 281.8946, "ARG_OF_PERICENTER": 273.5423, "MEAN_ANOMALY": 231.467, "EPHEMERIS_TYPE": 0, "CLASSIFICATION_TYPE": "U", "NORAD_CAT_ID": 67018, "ELEMENT_SET_NO": 999, "REV_AT_EPOCH": 255, "BSTAR": -0.01509517, "MEAN_MOTION_DOT": -0.01630727, "MEAN_MOTION_DDOT": 0}, "tle": {"line1": "1 67018U 25293R   25361.25002315 -.01630727  00000+0 -15095-1 0  9996", "line2": "2 67018  69.9977 281.8946 0003506 273.5423 231.4670 15.70207953  2553"}}, "geometry": {"type": "Point", "coordinates": [-89.5679032956485, -26.522300862727107]}}, {"type": "Feature", "properties": {"norad_id": 67019, "name": "STARLINK-35688", "group": "last-30-days", "lat": -24.558700644996573, "lon": -88.67857861743117, "alt_km": 366.0416934798186, "timestamp": "2025-12-27T14:26:29.245626+00:00", "meta": {"OBJECT_NAME": "STARLINK-35688", "OBJECT_ID": "2025-293S", "EPOCH": "2025-12-27T06:00:02.000160", "MEAN_MOTION": 15.70189952, "ECCENTRICITY": 0.00032871, "INCLINATION": 69.9975, "RA_OF_ASC_NODE": 281.8916, "ARG_OF_PERICENTER": 271.2141, "MEAN_ANOMALY": 235.9384, "EPHEMERIS_TYPE": 0, "CLASSIFICATION_TYPE": "U", "NORAD_CAT_ID": 67019, "ELEMENT_SET_NO": 999, "REV_AT_EPOCH": 263, "BSTAR": -0.015023939, "MEAN_MOTION_DOT": -0.01622624, "MEAN_MOTION_DDOT": 0}, "tle": {"line1": "1 67019U 25293S   25361.25002315 -.01622624  00000+0 -15024-1 0  9996", "line2": "2 67019  69.9975 281.8916 0003287 271.2141 235.9384 15.70189952  2635"}}, "geometry": {"type": "Point", "coordinates": [-88.67857861743117, -24.558700644996573]}}, {"type": "Feature", "properties": {"norad_id": 67020, "name": "STARLINK-36172", "group": "last-30-days", "lat": -22.33411444469064, "lon": -87.70566030427679, "alt_km": 365.9702462073292, "timestamp": "2025-12-27T14:26:29.245636+00:00", "meta": {"OBJECT_NAME": "STARLINK-36172", "OBJECT_ID": "2025-293T", "EPOCH": "2025-12-27T06:00:02.000160", "MEAN_MOTION": 15.7016299, "ECCENTRICITY": 0.00033933, "INCLINATION": 69.9977, "RA_OF_ASC_NODE": 281.8891, "ARG_OF_PERICENTER": 271.9719, "MEAN_ANOMALY": 237.6138, "EPHEMERIS_TYPE": 0, "CLASSIFICATION_TYPE": "U", "NORAD_CAT_ID": 67020, "ELEMENT_SET_NO": 999, "REV_AT_EPOCH": 255, "BSTAR": -0.015061433, "MEAN_MOTION_DOT": -0.01624675, "MEAN_MOTION_DDOT": 0}, "tle": {"line1": "1 67020U 25293T   25361.25002315 -.01624675  00000+0 -15061-1 0  9997", "line2": "2 67020  69.9977 281.8891 0003393 271.9719 237.6138 15.70162990  2557"}}, "geometry": {"type": "Point", "coordinates": [-87.70566030427679, -22.33411444469064]}}]}